[{"OBJECT_NAME":"KUIPER-00019","OBJECT_ID":"2025-088L","EPOCH":"2026-03-09T09:15:44.819424","MEAN_MOTION":14.79929148,"ECCENTRICITY":4.57e-5,"INCLINATION":51.9001,"RA_OF_ASC_NODE":100.439,"ARG_OF_PERICENTER":83.3518,"MEAN_ANOMALY":276.7496,"EPHEMERIS_TYPE":0,"CLASSIFICATION_TYPE":"U","NORAD_CAT_ID":63734,"ELEMENT_SET_NO":999,"REV_AT_EPOCH":4746,"BSTAR":0.00025930847,"MEAN_MOTION_DOT":1.756e-5,"MEAN_MOTION_DDOT":0},{"OBJECT_NAME":"ORBCOMM FM37","OBJECT_ID":"2008-031E","EPOCH":"2026-03-09T16:34:30.287712","MEAN_MOTION":14.81013977,"ECCENTRICITY":0.00042656,"INCLINATION":48.4377,"RA_OF_ASC_NODE":160.2726,"ARG_OF_PERICENTER":77.0893,"MEAN_ANOMALY":42.6651,"EPHEMERIS_TYPE":0,"CLASSIFICATION_TYPE":"U","NORAD_CAT_ID":33064,"ELEMENT_SET_NO":999,"REV_AT_EPOCH":95338,"BSTAR":0.00026246399,"MEAN_MOTION_DOT":1.842e-5,"MEAN_MOTION_DDOT":0}]
